{"spkid": "50838152", "covariance": {"labels": ["e", "q", "tp", "node", "peri", "i"], "elements": [{"label": "e", "title": "eccentricity", "value": ".5177730334023977", "units": null, "name": "e", "sigma": 2.97168989394238e-08}, {"title": "perihelion distance", "value": ".8588157016522162", "units": "au", "name": "q", "sigma": 5.29245360912313e-08, "label": "q"}, {"sigma": 2.30609102335227e-05, "name": "tp", "value": "2458476.496928163593", "title": "time of perihelion passage", "units": "TDB", "label": "tp"}, {"name": "om", "sigma": 0.000116201942030671, "units": "deg", "title": "longitude of the ascending node", "value": "344.7207264538587", "label": "node"}, {"sigma": 0.000118311231400054, "name": "w", "title": "argument of perihelion", "value": "100.3861221693954", "units": "deg", "label": "peri"}, {"sigma": 1.00883193225429e-05, "name": "i", "title": "inclination", "value": "1.758818339606147", "units": "deg", "label": "i"}], "data": [["8.830940825759296E-16", "-1.562160253276428E-15", "6.154012335237559E-14", "-8.310498875593652E-15", "-2.640199033242805E-14", "7.47867759555545E-17"], ["-1.562160253276428E-15", "2.801006520472041E-15", "-8.80805620020354E-14", "-1.066035023511467E-14", "8.117259082341715E-14", "-1.110174746918378E-15"], ["6.154012335237559E-14", "-8.80805620020354E-14", "5.318055807985909E-10", "-4.154499036765881E-10", "6.725139613239308E-10", "-3.869962350899125E-11"], ["-8.310498875593652E-15", "-1.066035023511467E-14", "-4.154499036765881E-10", "1.350289133169937E-8", "-1.367556236470823E-8", "-9.862989790984661E-11"], ["-2.640199033242805E-14", "8.117259082341715E-14", "6.725139613239308E-10", "-1.367556236470823E-8", "1.399754747539719E-8", "8.131037420770418E-11"], ["7.47867759555545E-17", "-1.110174746918378E-15", "-3.869962350899125E-11", "-9.862989790984661E-11", "8.131037420770418E-11", "1.017741867535919E-10"]], "epoch": "2458100.5"}, "elements": [{"label": "e", "name": "e", "sigma": "2.9637E-8", "units": null, "value": ".5171704602169942", "title": "eccentricity"}, {"label": "a", "value": "1.780487765800188", "title": "semi-major axis", "units": "au", "sigma": "1.2602E-8", "name": "a"}, {"label": "q", "sigma": "5.2795E-8", "name": "q", "units": "au", "title": "perihelion distance", "value": ".8596720885505769"}, {"label": "i", "sigma": "1.0102E-5", "name": "i", "title": "inclination; angle with respect to x-y ecliptic plane", "value": "1.760376592089364", "units": "deg"}, {"value": "344.46402210527", "title": "longitude of the ascending node", "units": "deg", "sigma": ".00011591", "name": "om", "label": "node"}, {"sigma": ".00011802", "name": "w", "units": "deg", "title": "argument of perihelion", "value": "100.7044207184637", "label": "peri"}, {"sigma": "1.5813E-5", "name": "ma", "units": "deg", "title": "mean anomaly", "value": "49.6839546417162", "label": "M"}, {"label": "tp", "title": "time of perihelion passage", "value": "2461080.737577114278", "units": "TDB", "sigma": "3.7116E-5", "name": "tp"}, {"label": "period", "sigma": "9.2128E-6", "name": "per", "title": "sidereal orbital period", "value": "867.7745672575651", "units": "d"}, {"title": "mean motion", "value": ".4148542877186536", "units": "deg/d", "name": "n", "sigma": "4.4043E-9", "label": "n"}, {"label": "Q", "sigma": "1.9119E-8", "name": "ad", "units": "au", "value": "2.701303443049798", "title": "aphelion distance"}], "epoch": "2461200.5"}